GOES 1 (SMS-C) [-]      
1 08366U 75100A   23276.69559174  .00000031  00000+0  00000+0 0  9994
2 08366   7.1182 289.7706 0003569 276.2144 290.0284  1.00252145175167
GOES 2 [-]              
1 10061U 77048A   23276.79531965 -.00000076  00000+0  00000+0 0  9991
2 10061   8.7668 302.2120 0009883  30.5857 338.9391  0.99400162 36467
GOES 3 [-]              
1 10953U 78062A   23276.82690885 -.00000196  00000+0  00000+0 0  9992
2 10953   9.1389 307.0817 0002825 207.2953 327.3508  0.99365680118780
GOES 4 [-]              
1 11964U 80074A   23276.79601582 -.00000079  00000+0  00000+0 0  9993
2 11964  10.1376 310.9190 0030742  88.6037 276.1536  0.99232211117831
GOES 5 [-]              
1 12472U 81049A   23277.18333587 -.00000033  00000+0  00000+0 0  9992
2 12472  11.1316 322.7014 0002940 222.6831 136.8461  1.00207798113063
GOES 6 [-]              
1 14050U 83041A   23276.61469736  .00000010  00000+0  00000+0 0  9997
2 14050  11.7732 328.1280 0004933 184.3933 316.6277  1.00230925206111
GOES 7 [-]              
1 17561U 87022A   23275.99916866 -.00000264  00000+0  00000+0 0  9993
2 17561  13.8307 344.7883 0003496 103.4055 255.9757  0.99907259117088
GOES 8 [-]              
1 23051U 94022A   23276.55997737 -.00000119  00000+0  00000+0 0  9990
2 23051  13.5804  20.8500 0004436  82.6410 303.5622  0.98906823114368
GOES 9 [-]              
1 23581U 95025A   23276.27546539 -.00000090  00000+0  00000+0 0  9999
2 23581  13.0815  21.3687 0008675 138.4865 232.5201  0.98798832103000
GOES 10 [-]             
1 24786U 97019A   23276.79294904 -.00000314  00000+0  00000+0 0  9994
2 24786  11.9618  27.7313 0029491 208.7469 205.1178  0.99127165 96288
GOES 11 [-]             
1 26352U 00022A   23276.58541844  .00000056  00000+0  00000+0 0  9990
2 26352   9.6897  55.4304 0003573 163.0558 236.8424  0.99040809 42695
GOES 12 [-]             
1 26871U 01031A   23276.78191817 -.00000221  00000+0  00000+0 0  9995
2 26871  10.3723  44.9557 0002169 298.2771 256.5190  0.99137902 80972
EWS-G1 (GOES 13) [+]    
1 29155U 06018A   23277.16321747  .00000026  00000+0  00000+0 0  9995
2 29155   1.7839  89.9612 0005619 132.7832 270.3208  1.00277437 63613
GOES 14 [B]             
1 35491U 09033A   23276.62886635 -.00000075  00000+0  00000+0 0  9992
2 35491   0.3609 264.9853 0003416 240.9551 343.9572  1.00271796 52259
GOES 15 [B]             
1 36411U 10008A   23277.03313354 -.00000208  00000+0  00000+0 0  9996
2 36411   0.3417 274.7147 0005457 316.8985 246.6028  0.99974746 49742
GOES 16 [+]             
1 41866U 16071A   23276.84944771 -.00000257  00000+0  00000+0 0  9997
2 41866   0.0557 289.0939 0000959 317.0181 356.7778  1.00271864 25209
GOES 17 [+]             
1 43226U 18022A   23277.39248645 -.00000100  00000+0  00000+0 0  9992
2 43226   0.0357 353.9933 0002027 196.6461 218.7831  1.00272886 20548
GOES 18 [+]             
1 51850U 22021A   23277.50081279  .00000088  00000+0  00000+0 0  9993
2 51850   0.0227  16.4302 0000439 201.3684 198.4298  1.00271188  5912
